{
  "type": "FeatureCollection",
  "features": [
    {
      "type": "Feature",
      "properties": {
        "norad_id": 66849,
        "name": "STARLINK-36102",
        "group": "last-30-days",
        "lat": -41.26638984282863,
        "lon": 30.934551365931814,
        "alt_km": 325.3491697638956,
        "timestamp": "2025-12-16T03:53:25.817362+00:00",
        "meta_object_name": "STARLINK-36102",
        "meta_object_id": "2025-281B",
        "meta_epoch": "2025-12-15T06:00:04.999968",
        "meta_mean_motion": 15.84743595,
        "meta_eccentricity": 0.00013778,
        "meta_inclination": 43.0004,
        "meta_ra_of_asc_node": 106.8722,
        "meta_arg_of_pericenter": 273.2335,
        "meta_mean_anomaly": 205.4716,
        "meta_ephemeris_type": 0,
        "meta_classification_type": "U",
        "meta_norad_cat_id": 66849,
        "meta_element_set_no": 999,
        "meta_rev_at_epoch": 180,
        "meta_bstar": -0.0054010898,
        "meta_mean_motion_dot": -0.01157809,
        "meta_mean_motion_ddot": 0,
        "tle_line1": "1 66849U 25281B   25349.25005787 -.01157809  00000+0 -54011-2 0  9993",
        "tle_line2": "2 66849  43.0004 106.8722 0001377 273.2335 205.4716 15.84743595  1800"
      },
      "geometry": {
        "type": "Point",
        "coordinates": [
          30.934551365931814,
          -41.26638984282863
        ]
      }
    },
    {
      "type": "Feature",
      "properties": {
        "norad_id": 66850,
        "name": "STARLINK-36105",
        "group": "last-30-days",
        "lat": -40.535251357637435,
        "lon": 34.66767833813099,
        "alt_km": 325.3884469321174,
        "timestamp": "2025-12-16T03:53:25.817372+00:00",
        "meta_object_name": "STARLINK-36105",
        "meta_object_id": "2025-281C",
        "meta_epoch": "2025-12-15T06:00:04.999968",
        "meta_mean_motion": 15.84716663,
        "meta_eccentricity": 0.00015128,
        "meta_inclination": 43.0001,
        "meta_ra_of_asc_node": 106.8646,
        "meta_arg_of_pericenter": 269.9983,
        "meta_mean_anomaly": 211.7559,
        "meta_ephemeris_type": 0,
        "meta_classification_type": "U",
        "meta_norad_cat_id": 66850,
        "meta_element_set_no": 999,
        "meta_rev_at_epoch": 180,
        "meta_bstar": -0.0054663065,
        "meta_mean_motion_dot": -0.01169006,
        "meta_mean_motion_ddot": 0,
        "tle_line1": "1 66850U 25281C   25349.25005787 -.01169006  00000+0 -54663-2 0  9990",
        "tle_line2": "2 66850  43.0001 106.8646 0001512 269.9983 211.7559 15.84716663  1807"
      },
      "geometry": {
        "type": "Point",
        "coordinates": [
          34.66767833813099,
          -40.535251357637435
        ]
      }
    },
    {
      "type": "Feature",
      "properties": {
        "norad_id": 66851,
        "name": "STARLINK-36094",
        "group": "last-30-days",
        "lat": -39.84074368943795,
        "lon": 37.69184016435389,
        "alt_km": 325.4056308301606,
        "timestamp": "2025-12-16T03:53:25.817382+00:00",
        "meta_object_name": "STARLINK-36094",
        "meta_object_id": "2025-281D",
        "meta_epoch": "2025-12-15T06:00:04.999968",
        "meta_mean_motion": 15.84714192,
        "meta_eccentricity": 0.00014646,
        "meta_inclination": 42.9999,
        "meta_ra_of_asc_node": 106.8584,
        "meta_arg_of_pericenter": 276.5972,
        "meta_mean_anomaly": 207.6094,
        "meta_ephemeris_type": 0,
        "meta_classification_type": "U",
        "meta_norad_cat_id": 66851,
        "meta_element_set_no": 999,
        "meta_rev_at_epoch": 180,
        "meta_bstar": -0.005499124,
        "meta_mean_motion_dot": -0.01175122,
        "meta_mean_motion_ddot": 0,
        "tle_line1": "1 66851U 25281D   25349.25005787 -.01175122  00000+0 -54991-2 0  9991",
        "tle_line2": "2 66851  42.9999 106.8584 0001464 276.5972 207.6094 15.84714192  1804"
      },
      "geometry": {
        "type": "Point",
        "coordinates": [
          37.69184016435389,
          -39.84074368943795
        ]
      }
    },
    {
      "type": "Feature",
      "properties": {
        "norad_id": 66852,
        "name": "STARLINK-35992",
        "group": "last-30-days",
        "lat": -39.08574772303038,
        "lon": 40.593541864975805,
        "alt_km": 325.3727454451782,
        "timestamp": "2025-12-16T03:53:25.817392+00:00",
        "meta_object_name": "STARLINK-35992",
        "meta_object_id": "2025-281E",
        "meta_epoch": "2025-12-15T06:00:04.999968",
        "meta_mean_motion": 15.84712324,
        "meta_eccentricity": 0.00015232,
        "meta_inclination": 43.0002,
        "meta_ra_of_asc_node": 106.8526,
        "meta_arg_of_pericenter": 273.5078,
        "meta_mean_anomaly": 213.0799,
        "meta_ephemeris_type": 0,
        "meta_classification_type": "U",
        "meta_norad_cat_id": 66852,
        "meta_element_set_no": 999,
        "meta_rev_at_epoch": 180,
        "meta_bstar": -0.0055083478,
        "meta_mean_motion_dot": -0.01176818,
        "meta_mean_motion_ddot": 0,
        "tle_line1": "1 66852U 25281E   25349.25005787 -.01176818  00000+0 -55083-2 0  9998",
        "tle_line2": "2 66852  43.0002 106.8526 0001523 273.5078 213.0799 15.84712324  1806"
      },
      "geometry": {
        "type": "Point",
        "coordinates": [
          40.593541864975805,
          -39.08574772303038
        ]
      }
    },
    {
      "type": "Feature",
      "properties": {
        "norad_id": 66853,
        "name": "STARLINK-35986",
        "group": "last-30-days",
        "lat": -38.00248846182038,
        "lon": 44.25743907032147,
        "alt_km": 325.46144389647,
        "timestamp": "2025-12-16T03:53:25.817405+00:00",
        "meta_object_name": "STARLINK-35986",
        "meta_object_id": "2025-281F",
        "meta_epoch": "2025-12-15T06:00:04.999968",
        "meta_mean_motion": 15.84679759,
        "meta_eccentricity": 0.000156,
        "meta_inclination": 43.0003,
        "meta_ra_of_asc_node": 106.8444,
        "meta_arg_of_pericenter": 273.5314,
        "meta_mean_anomaly": 216.27,
        "meta_ephemeris_type": 0,
        "meta_classification_type": "U",
        "meta_norad_cat_id": 66853,
        "meta_element_set_no": 999,
        "meta_rev_at_epoch": 180,
        "meta_bstar": -0.0055683252,
        "meta_mean_motion_dot": -0.0118659,
        "meta_mean_motion_ddot": 0,
        "tle_line1": "1 66853U 25281F   25349.25005787 -.01186590  00000+0 -55683-2 0  9993",
        "tle_line2": "2 66853  43.0003 106.8444 0001560 273.5314 216.2700 15.84679759  1802"
      },
      "geometry": {
        "type": "Point",
        "coordinates": [
          44.25743907032147,
          -38.00248846182038
        ]
      }
    },
    {
      "type": "Feature",
      "properties": {
        "norad_id": 66854,
        "name": "STARLINK-36087",
        "group": "last-30-days",
        "lat": -36.85298924928994,
        "lon": 47.68338475041871,
        "alt_km": 325.5792247698755,
        "timestamp": "2025-12-16T03:53:25.817417+00:00",
        "meta_object_name": "STARLINK-36087",
        "meta_object_id": "2025-281G",
        "meta_epoch": "2025-12-15T06:00:04.999968",
        "meta_mean_motion": 15.84652363,
        "meta_eccentricity": 0.00015853,
        "meta_inclination": 43.0002,
        "meta_ra_of_asc_node": 106.8363,
        "meta_arg_of_pericenter": 270.049,
        "meta_mean_anomaly": 222.8345,
        "meta_ephemeris_type": 0,
        "meta_classification_type": "U",
        "meta_norad_cat_id": 66854,
        "meta_element_set_no": 999,
        "meta_rev_at_epoch": 180,
        "meta_bstar": -0.0056233727,
        "meta_mean_motion_dot": -0.01195636,
        "meta_mean_motion_ddot": 0,
        "tle_line1": "1 66854U 25281G   25349.25005787 -.01195636  00000+0 -56234-2 0  9998",
        "tle_line2": "2 66854  43.0002 106.8363 0001585 270.0490 222.8345 15.84652363  1806"
      },
      "geometry": {
        "type": "Point",
        "coordinates": [
          47.68338475041871,
          -36.85298924928994
        ]
      }
    },
    {
      "type": "Feature",
      "properties": {
        "norad_id": 66855,
        "name": "STARLINK-36090",
        "group": "last-30-days",
        "lat": -35.78552694343962,
        "lon": 50.551433255796454,
        "alt_km": 325.6534753226906,
        "timestamp": "2025-12-16T03:53:25.817430+00:00",
        "meta_object_name": "STARLINK-36090",
        "meta_object_id": "2025-281H",
        "meta_epoch": "2025-12-15T06:00:04.999968",
        "meta_mean_motion": 15.84641608,
        "meta_eccentricity": 0.00015086,
        "meta_inclination": 43.0004,
        "meta_ra_of_asc_node": 106.8299,
        "meta_arg_of_pericenter": 269.0409,
        "meta_mean_anomaly": 226.4344,
        "meta_ephemeris_type": 0,
        "meta_classification_type": "U",
        "meta_norad_cat_id": 66855,
        "meta_element_set_no": 999,
        "meta_rev_at_epoch": 168,
        "meta_bstar": -0.0056322756,
        "meta_mean_motion_dot": -0.01196721,
        "meta_mean_motion_ddot": 0,
        "tle_line1": "1 66855U 25281H   25349.25005787 -.01196721  00000+0 -56323-2 0  9994",
        "tle_line2": "2 66855  43.0004 106.8299 0001508 269.0409 226.4344 15.84641608  1685"
      },
      "geometry": {
        "type": "Point",
        "coordinates": [
          50.551433255796454,
          -35.78552694343962
        ]
      }
    }
  ]
}